AEROCUBE 6B             
1 40046U 14033AN  26068.42625992  .00007941  00000+0  66368-3 0  9998
2 40046  97.7129 236.1645 0037452 343.2300  16.7681 14.98232474631816
STARLINK-36191          
1 67023U 25293W   26068.48649976  .00002407  00000+0  20942-3 0  9996
2 67023  70.0001  95.1187 0003450 270.4304  89.6460 14.98334349 14850
